H1 CPF  2 ESA 2024 11 20 10 325 01 galileo209
H2  1507901 7209    41174 2024 11 19 23 59 42 2024 11 24 23 59 42   900 1 1  0 0 0  1
H9
10 0 60636  43182.000000  0       -858806.847      22228725.437     -19539084.632
10 0 60636  44082.000000  0      -1925412.791      20738559.418     -21043290.456
10 0 60636  44982.000000  0      -3173321.404      19231757.958     -22285985.056
10 0 60636  45882.000000  0      -4592236.579      17743734.744     -23251721.978
10 0 60636  46782.000000  0      -6165939.342      16308005.633     -23928492.802
10 0 60636  47682.000000  0      -7872735.611      14955167.370     -24307876.068
10 0 60636  48582.000000  0      -9686076.468      13711970.252     -24385141.983
10 0 60636  49482.000000  0     -11575331.709      12600513.617     -24159311.644
10 0 60636  50382.000000  0     -13506692.703      11637589.254     -23633170.034
10 0 60636  51282.000000  0     -15444176.507      10834193.161     -22813232.607
10 0 60636  52182.000000  0     -17350700.053      10195220.923     -21709665.792
10 0 60636  53082.000000  0     -19189190.978       9719356.175     -20336162.338
10 0 60636  53982.000000  0     -20923700.523       9399155.684     -18709772.911
10 0 60636  54882.000000  0     -22520483.796       9221328.386     -16850695.922
10 0 60636  55782.000000  0     -23949013.672       9167199.667     -14782028.080
10 0 60636  56682.000000  0     -25182896.640       9213346.398     -12529478.618
10 0 60636  57582.000000  0     -26200661.907       9332382.808     -10121050.673
10 0 60636  58482.000000  0     -26986399.016       9493872.583      -7586693.686
10 0 60636  59382.000000  0     -27530223.940       9665338.536      -4957931.102
10 0 60636  60282.000000  0     -27828558.968       9813338.115      -2267467.994
10 0 60636  61182.000000  0     -27884217.545       9904570.890        451216.484
10 0 60636  62082.000000  0     -27706291.350       9906983.134       3164286.680
10 0 60636  62982.000000  0     -27309843.106       9790834.652       5837972.784
10 0 60636  63882.000000  0     -26715414.776       9529694.189       8438992.545
10 0 60636  64782.000000  0     -25948366.578       9101331.984      10934967.019
10 0 60636  65682.000000  0     -25038067.626       8488481.250      13294825.025
10 0 60636  66582.000000  0     -24016963.663       7679444.521      15489191.188
10 0 60636  67482.000000  0     -22919551.225       6668525.673      17490752.628
10 0 60636  68382.000000  0     -21781290.525       5456273.929      19274599.668
10 0 60636  69282.000000  0     -20637491.220       4049532.100      20818536.288
10 0 60636  70182.000000  0     -19522206.104       2461287.450      22103356.442
10 0 60636  71082.000000  0     -18467167.447        710329.807      23113082.814
10 0 60636  71982.000000  0     -17500799.334      -1179272.439      23835165.106
10 0 60636  72882.000000  0     -16647336.962      -3178862.058      24260635.427
10 0 60636  73782.000000  0     -15926080.438      -5256026.911      24384218.934
10 0 60636  74682.000000  0     -15350806.376      -7375552.009      24204398.425
10 0 60636  75582.000000  0     -14929355.652      -9500459.985      23723432.146
10 0 60636  76482.000000  0     -14663410.100     -11593107.500      22947324.649
10 0 60636  77382.000000  0     -14548465.045     -13616303.366      21885751.127
10 0 60636  78282.000000  0     -14573998.397     -15534413.515      20551936.179
10 0 60636  79182.000000  0     -14723830.908     -17314418.347      18962488.550
10 0 60636  80082.000000  0     -14976666.192     -18926889.506      17137193.896
10 0 60636  80982.000000  0     -15306793.475     -20346855.636      15098768.147
10 0 60636  81882.000000  0     -15684930.981     -21554530.151      12872574.534
10 0 60636  82782.000000  0     -16079183.417     -22535878.366      10486307.781
10 0 60636  83682.000000  0     -16456083.475     -23283006.354       7969649.388
10 0 60636  84582.000000  0     -16781684.637     -23794359.484       5353898.302
10 0 60636  85482.000000  0     -17022670.937     -24074724.540       2671581.552
10 0 60636  86382.000000  0     -17147448.832     -24135035.481        -43950.258
10 0 60637    882.000000  0     -17127186.901     -23991989.045      -2758937.579
10 0 60637   1782.000000  0     -16936770.701     -23667482.352      -5439631.457
10 0 60637   2682.000000  0     -16555642.819     -23187890.238      -8052712.782
10 0 60637   3582.000000  0     -15968501.736     -22583205.065     -10565705.977
10 0 60637   4482.000000  0     -15165837.572     -21886066.029     -12947382.021
10 0 60637   5382.000000  0     -14144287.878     -21130708.441     -15168145.776
10 0 60637   6282.000000  0     -12906802.302     -20351865.952     -17200402.868
10 0 60637   7182.000000  0     -11462610.913     -19583660.099     -19018901.582
10 0 60637   8082.000000  0      -9826997.123     -18858511.966     -20601045.611
10 0 60637   8982.000000  0      -8020882.221     -18206109.999     -21927173.848
10 0 60637   9882.000000  0      -6070234.421     -17652466.259     -22980803.817
10 0 60637  10782.000000  0      -4005320.776     -17219090.619     -23748835.829
10 0 60637  11682.000000  0      -1859825.193     -16922308.694     -24221715.371
10 0 60637  12582.000000  0        330140.042     -16772744.835     -24393551.804
10 0 60637  13482.000000  0       2527098.532     -16774986.357     -24262191.895
10 0 60637  14382.000000  0       4693316.749     -16927439.505     -23829247.311
10 0 60637  15282.000000  0       6791919.329     -17222381.732     -23100075.678
10 0 60637  16182.000000  0       8787977.994     -17646208.694     -22083715.402
10 0 60637  17082.000000  0      10649540.221     -18179868.335     -20792774.975
10 0 60637  17982.000000  0      12348565.625     -18799468.561     -19243278.024
10 0 60637  18882.000000  0      13861740.855     -19477039.575     -17454465.919
10 0 60637  19782.000000  0      15171147.582     -20181427.101     -15448560.260
10 0 60637  20682.000000  0      16264762.694     -20879288.558     -13250488.061
10 0 60637  21582.000000  0      17136775.051     -21536161.031     -10887572.969
10 0 60637  22482.000000  0      17787708.856     -22117567.550      -8389196.231
10 0 60637  23382.000000  0      18224349.771     -22590126.940      -5786431.608
10 0 60637  24282.000000  0      18459476.069     -22922632.380      -3111658.735
10 0 60637  25182.000000  0      18511403.277     -23087064.686       -398159.759
10 0 60637  26082.000000  0      18403356.591     -23059508.406       2320295.669
10 0 60637  26982.000000  0      18162690.833     -22820941.809       5009871.824
10 0 60637  27882.000000  0      17819982.504     -22357875.802       7637089.378
10 0 60637  28782.000000  0      17408022.542     -21662821.573      10169243.573
10 0 60637  29682.000000  0      16960741.526     -20734572.133      12574812.746
10 0 60637  30582.000000  0      16512101.229     -19578288.804      14823852.017
10 0 60637  31482.000000  0      16094987.435     -18205389.827      16888367.145
10 0 60637  32382.000000  0      15740138.923     -16633244.545      18742663.810
10 0 60637  33282.000000  0      15475146.356     -14884682.666      20363667.940
10 0 60637  34182.000000  0      15323552.574     -12987333.986      21731213.068
10 0 60637  35082.000000  0      15304082.590     -10972819.238      22828291.155
10 0 60637  35982.000000  0      15430027.495      -8875817.383      23641263.787
10 0 60637  36882.000000  0      15708801.596      -6733038.545      24160031.192
10 0 60637  37782.000000  0      16141686.675      -4582134.681      24378157.014
10 0 60637  38682.000000  0      16723771.361      -2460582.051      24292947.386
10 0 60637  39582.000000  0      17444087.501       -404570.339      23905483.383
10 0 60637  40482.000000  0      18285939.198       1552066.886      23220606.521
10 0 60637  41382.000000  0      19227414.212       3378847.060      22246857.522
10 0 60637  42282.000000  0      20242061.649       5049527.873      20996369.164
10 0 60637  43182.000000  0      21299714.702       6542863.216      19484714.555
10 0 60637  44082.000000  0      22367432.668       7843202.339      17730712.733
10 0 60637  44982.000000  0      23410532.704       8940913.647      15756194.018
10 0 60637  45882.000000  0      24393679.012       9832620.037      13585728.011
10 0 60637  46782.000000  0      25281995.318      10521238.581      11246317.626
10 0 60637  47682.000000  0      26042165.787      11015823.491       8767062.948
10 0 60637  48582.000000  0      26643489.882      11331217.437       6178799.101
10 0 60637  49482.000000  0      27058858.100      11487522.300       3513712.636
10 0 60637  50382.000000  0      27265618.005      11509406.106        804941.212
10 0 60637  51282.000000  0      27246303.424      11425267.981      -1913838.406
10 0 60637  52182.000000  0      26989203.959      11266287.452      -4608828.916
10 0 60637  53082.000000  0      26488756.954      11065387.985      -7246532.358
10 0 60637  53982.000000  0      25745749.670      10856147.375      -9794166.093
10 0 60637  54882.000000  0      24767325.323      10671689.196     -12220069.688
10 0 60637  55782.000000  0      23566792.795      10543590.144     -14494097.661
10 0 60637  56682.000000  0      22163245.985      10500837.553     -16587993.241
10 0 60637  57582.000000  0      20581004.688      10568869.774     -18475738.531
10 0 60637  58482.000000  0      18848894.463      10768729.521     -20133876.792
10 0 60637  59382.000000  0      16999387.964      11116356.708     -21541802.919
10 0 60637  60282.000000  0      15067634.513      11622042.944     -22682018.574
10 0 60637  61182.000000  0      13090408.153      12290064.808     -23540348.906
10 0 60637  62082.000000  0      11105006.948      13118507.429     -24106118.231
10 0 60637  62982.000000  0       9148137.789      14099283.969     -24372282.557
10 0 60637  63882.000000  0       7254821.417      15218350.499     -24335517.351
99